[{"OBJECT_NAME":"STARLINK-33945","OBJECT_ID":"2025-112J","EPOCH":"2026-03-09T17:03:51.499008","MEAN_MOTION":15.05656806,"ECCENTRICITY":4.469e-5,"INCLINATION":97.6042,"RA_OF_ASC_NODE":130.0528,"ARG_OF_PERICENTER":79.0155,"MEAN_ANOMALY":281.1122,"EPHEMERIS_TYPE":0,"CLASSIFICATION_TYPE":"U","NORAD_CAT_ID":64154,"ELEMENT_SET_NO":999,"REV_AT_EPOCH":4386,"BSTAR":0.00017901756,"MEAN_MOTION_DOT":2.524e-5,"MEAN_MOTION_DDOT":0},{"OBJECT_NAME":"COSMOS 2251 DEB","OBJECT_ID":"1993-036HX","EPOCH":"2026-03-09T21:31:03.673056","MEAN_MOTION":15.04193551,"ECCENTRICITY":0.00046843,"INCLINATION":74.0171,"RA_OF_ASC_NODE":332.1487,"ARG_OF_PERICENTER":332.3762,"MEAN_ANOMALY":27.7177,"EPHEMERIS_TYPE":0,"CLASSIFICATION_TYPE":"U","NORAD_CAT_ID":34036,"ELEMENT_SET_NO":999,"REV_AT_EPOCH":89876,"BSTAR":0.0040391987,"MEAN_MOTION_DOT":0.00056541,"MEAN_MOTION_DDOT":0}]
